satname,norad_id,inclination_deg,eccentricity,mean_motion_rev_per_day,perigee_km,apogee_km,l1,l2
STARLINK-1420,45695,53.0465,0.000496,15.67184941,363.6166336136448,370.30777202284116,1 45695U 20035AQ  26150.79854759  .00063749  00000+0  58397-3 0  9990,2 45695  53.0465 341.5925 0004960 107.4599 252.6958 15.67184941332187
STARLINK-1422,45696,53.1577,0.0003183,15.34195596,461.1332065752522,465.488472269828,1 45696U 20035AR  26150.80434676  .00043008  00000+0  12849-2 0  9992,2 45696  53.1577  27.3833 0003183 125.1179 235.0122 15.34195596331557
STARLINK-1351,45697,53.0439,0.0004425,15.65583385,368.5747321300778,374.54821527930653,1 45697U 20035AS  26150.81103939  .00056889  00000+0  55687-3 0  9998,2 45697  53.0439 341.8596 0004425 124.6841 235.4591 15.65583385332189
STARLINK-1400,45700,53.043,0.0002317,15.64188769,374.0080216592487,377.1376908066277,1 45700U 20035AV  26150.83335647  .00121709  00000+0  12432-2 0  9992,2 45700  53.0430 344.2430 0002317  69.5471  13.1518 15.64188769  6008
STARLINK-1403,45701,53.1572,0.000309,15.33158207,464.28164079894486,468.5115625647841,1 45701U 20035AW  26150.81181554  .00053329  00000+0  16412-2 0  9991,2 45701  53.1572  14.8318 0003090 156.2607 203.8538 15.33158207331726
STARLINK-1407,45703,53.028,0.0005117,15.72671685,347.8214100442947,354.7082798924339,1 45703U 20035AY  26150.59700851  .00078041  00000+0  56750-3 0  9993,2 45703  53.0280 272.4933 0005117   9.6846 350.4269 15.72671685333136
STARLINK-1411,45706,53.0353,0.0006932,15.86972022,306.14099746287593,315.41450887666997,1 45706U 20035BB  26150.83335647  .00436968  00000+0  15768-2 0  9999,2 45706  53.0353 293.6063 0006932 313.0877 227.7855 15.86972022  6049
STARLINK-1423,45710,53.0439,0.0006341,15.6810361,360.0521507480098,368.60294428717225,1 45710U 20035BF  26150.51540663  .00065448  00000+0  57711-3 0  9991,2 45710  53.0439 342.4854 0006341  75.7138 284.4582 15.68103610332134
STARLINK-1433,45711,53.0437,0.0006138,15.67744902,361.2168257427247,369.4951377271018,1 45711U 20035BG  26150.81735066  .00063370  00000+0  56734-3 0  9994,2 45711  53.0437 339.5710 0006138  85.1540 275.0176 15.67744902332204
STARLINK-1434,45712,53.0513,0.0002595,15.33605775,463.2890521000036,466.84067386689276,1 45712U 20035BH  26150.85486781  .00058617  00000+0  17763-2 0  9992,2 45712  53.0513 357.3220 0002595  83.6512 276.4784 15.33605775331979
STARLINK-1465,45731,53.0436,0.0001565,15.65086594,371.9331765003426,374.046279166153,1 45731U 20038B   26150.50204134  .00050120  00000+0  50164-3 0  9992,2 45731  53.0436 186.6002 0001565  70.0842 290.0341 15.65086594329129
STARLINK-1471,45735,53.0447,0.0003177,15.53060594,405.64021820078597,409.95200009834025,1 45735U 20038F   26150.86419750  .00031183  00000+0  49575-3 0  9999,2 45735  53.0447 107.0256 0003177  92.5385 267.5988 15.53060594330289
STARLINK-1480,45741,53.0469,0.0006126,15.6443979,370.71351590444647,378.98727606200373,1 45741U 20038M   26150.35108862  .00105831  00000+0  10724-2 0  9994,2 45741  53.0469 180.9495 0006126   5.6546 354.4536 15.64439790329201
STARLINK-1500,45744,53.0335,0.0002149,15.3875385,448.3258802589062,451.26052465992325,1 45744U 20038Q   26150.28900482  .00030519  00000+0  79190-3 0  9990,2 45744  53.0335 168.7442 0002149 101.5920 258.5325 15.38753850329369
STARLINK-1504,45746,53.0194,0.0003695,15.58382946,389.8349265540337,394.8383065566677,1 45746U 20038S   26150.13645827  .00048088  00000+0  62380-3 0  9998,2 45746  53.0194 107.6320 0003695  75.3797 284.7623 15.58382946330199
STARLINK-1506,45747,53.0732,0.0002775,15.28174054,479.3673752351524,483.17434659796163,1 45747U 20038T   26150.32818723  .00008813  00000+0  32891-3 0  9993,2 45747  53.0732 184.1090 0002775 136.1061 224.0158 15.28174054329161
STARLINK-1464,45751,53.0449,0.0004363,15.53654428,403.1069156504918,409.0268119420398,1 45751U 20038X   26150.44420468  .00035959  00000+0  55801-3 0  9993,2 45751  53.0449 172.9003 0004363  14.2155 345.8977 15.53654428329320
STARLINK-1477,45754,53.0491,0.0001394,15.18471761,509.49840729356765,511.4189477684622,1 45754U 20038AA  26150.55364556  .00027264  00000+0  13170-2 0  9995,2 45754  53.0491 199.6612 0001394 340.1111  19.9829 15.18471761328957
STARLINK-1478,45755,53.0437,0.0004971,15.67407509,362.9709913444376,369.6763341353335,1 45755U 20038AB  26150.40968713  .00066672  00000+0  60482-3 0  9990,2 45755  53.0437 158.6793 0004971  46.7802 313.3628 15.67407509329506
STARLINK-1493,45759,53.045,0.0007258,15.638691,371.59066058863846,381.3956817451053,1 45759U 20038AF  26150.86170102  .00097159  00000+0  10081-2 0  9994,2 45759  53.0450 165.9435 0007258   3.6181 356.4884 15.63869100329442
STARLINK-1494,45760,53.0379,0.0002531,16.02276025,266.4350940776658,269.7994279845998,1 45760U 20038AG  26150.84208855  .00474207  11164-3  79607-3 0  9991,2 45760  53.0379  96.2142 0002531  76.7346 283.3967 16.02276025330420
STARLINK-1502,45764,53.0442,0.0007305,15.6003701,382.6077390530745,392.4924078674003,1 45764U 20038AL  26150.31880737  .00095915  00000+0  11547-2 0  9998,2 45764  53.0442 172.1864 0007305 340.0624  20.0101 15.60037010329325
STARLINK-1470,45772,53.0426,0.0004744,15.34522974,459.0926387466834,465.5828811989468,1 45772U 20038AU  26150.44567389  .00040629  00000+0  12020-2 0  9995,2 45772  53.0426 152.8274 0004744  12.8591 347.2530 15.34522974329607
STARLINK-1482,45773,53.1558,0.0005208,15.36973219,451.5070315638104,458.6244955623388,1 45773U 20038AV  26150.46937514  .00058368  00000+0  15885-2 0  9990,2 45773  53.1558 169.1874 0005208   3.7564 356.3478 15.36973219329399
STARLINK-1496,45780,53.0444,0.0001295,15.63193032,377.56560163737777,379.3155552301914,1 45780U 20038BC  26150.83335647  .01237628  00000+0  12094-1 0  9995,2 45780  53.0444 140.5902 0001295  95.8563 235.4628 15.63193032  5884
STARLINK-1513,45786,53.1574,0.0001328,15.31711741,469.79546992207815,471.6145223562535,1 45786U 20038BJ  26150.35472296  .00002608  00000+0  95743-4 0  9992,2 45786  53.1574 171.3408 0001328  83.6172 276.4981 15.31711741329352
STARLINK-1522,46027,53.0611,0.0003102,15.12641988,526.0042515329324,530.2889098663982,1 46027U 20055A   26150.17395469  .00035609  00000+0  20207-2 0  9994,2 46027  53.0611 118.1738 0003102  26.9277 333.1876 15.12641988321209
STARLINK-1523,46028,53.1604,0.0001301,15.30213845,474.2821153304767,476.0653467826987,1 46028U 20055B   26150.10040694  .00008001  00000+0  28186-3 0  9996,2 46028  53.1604 108.5608 0001301 101.4617 258.6530 15.30213845321360
STARLINK-1526,46029,53.1615,8.82e-05,15.30185614,474.65355431765965,475.8624931998511,1 46029U 20055C   26150.87787242 -.00000610  00000+0 -84744-5 0  9992,2 46029  53.1615 104.9563 0000882  95.3995 264.7106 15.30185614321477
STARLINK-1555,46032,53.1604,0.00015,15.30192769,474.2086539179554,476.2646660159462,1 46032U 20055F   26150.86206713  .00000159  00000+0  17514-4 0  9990,2 46032  53.1604 105.0145 0001500  69.5866 290.5296 15.30192769321471
STARLINK-1556,46033,53.16,0.0001639,15.30180854,474.14896274643615,476.39551029416725,1 46033U 20055G   26150.25740120  .00023159  00000+0  79205-3 0  9998,2 46033  53.1600 107.8404 0001639  78.9403 281.1782 15.30180854321355
STARLINK-1557,46034,53.16,0.0001242,15.30213627,474.3232006819162,476.0255632291928,1 46034U 20055H   26150.26053401  .00007349  00000+0  25988-3 0  9991,2 46034  53.1600 107.8224 0001242  88.1763 271.9380 15.30213627321354
STARLINK-1558,46035,53.1624,0.0001834,15.30194877,473.97345824168224,476.48727339146444,1 46035U 20055J   26150.85574727  .00004343  00000+0  15869-3 0  9994,2 46035  53.1624 105.0584 0001834  94.6689 265.4522 15.30194877321470
STARLINK-1560,46036,53.1589,0.0001377,15.30201687,474.2663264596813,476.1537382323895,1 46036U 20055K   26150.12358596  .00004198  00000+0  15376-3 0  9990,2 46036  53.1589 108.4656 0001377  94.1700 265.9458 15.30201687321368
STARLINK-1569,46039,53.1602,0.0001462,15.30175999,474.2847624660435,476.28870356557854,1 46039U 20055N   26150.85890863 -.00000445  00000+0 -28882-5 0  9992,2 46039  53.1602 105.0326 0001462  97.7259 262.3907 15.30175999321464
STARLINK-1582,46043,53.1606,0.0001382,15.31691793,469.8179417930578,471.71097815659596,1 46043U 20055S   26150.88401400 -.00000268  00000+0  31264-5 0  9995,2 46043  53.1606 104.4042 0001382  89.9750 270.1410 15.31691793321474
STARLINK-1591,46045,53.158,0.0001408,15.30221035,474.1873202920906,476.11720654866986,1 46045U 20055U   26150.10778075  .00014823  00000+0  51127-3 0  9996,2 46045  53.1580 108.5248 0001408 102.9521 257.1637 15.30221035321339
STARLINK-1524,46047,53.16,0.0001002,15.31703268,470.0439970062198,471.41651000382353,1 46047U 20055W   26150.85333110  .00002210  00000+0  82947-4 0  9999,2 46047  53.1600  91.8479 0001002  69.0228 291.0881 15.31703268321658
STARLINK-1527,46048,53.1599,7.87e-05,15.31699911,470.20125388962606,471.27926717043283,1 46048U 20055X   26150.84866764  .00001181  00000+0  49808-4 0  9990,2 46048  53.1599  91.8516 0000787  87.7389 272.3702 15.31699911321622
STARLINK-1540,46051,53.1613,0.0001073,15.31701113,470.00179328698414,471.4715615781615,1 46051U 20055AA  26150.83471553 -.00000009  00000+0  11478-4 0  9992,2 46051  53.1613  92.1263 0001073  70.4917 289.6201 15.31701113321668
STARLINK-1541,46052,53.1595,0.0002467,15.81091777,325.6977598403937,329.0062481149562,1 46052U 20055AB  26150.83335647  .00172384  00000+0  85092-3 0  9993,2 46052  53.1595  78.9199 0002467 169.0127  32.3039 15.81091777  6018
STARLINK-1543,46053,53.1587,0.0001285,15.31704312,469.8470623660096,471.60722045035163,1 46053U 20055AC  26150.87197938  .00003683  00000+0  13036-3 0  9991,2 46053  53.1587  91.7564 0001285  93.8072 266.3076 15.31704312321661
STARLINK-1548,46054,53.1602,0.000138,15.31717672,469.7421786640434,471.63245417537564,1 46054U 20055AD  26150.16820445  .00001690  00000+0  66194-4 0  9990,2 46054  53.1602  95.1089 0001380  86.2268 273.8891 15.31717672321558
